STARLINK-35223          
1 65494U 25198C   26049.25282858  .00029944  00000+0  10187-2 0  9990
2 65494  53.1618   1.3224 0000944 102.3885 257.7221 15.30211399 25647
STARLINK-34446          
1 65495U 25198D   26049.85225048  .00026388  00000+0  89844-3 0  9991
2 65495  53.1614 358.6658 0000945  85.5356 274.5753 15.30252456 25735
STARLINK-35212          
1 65496U 25198E   26049.25915485  .00026150  00000+0  89130-3 0  9992
2 65496  53.1628   1.3603 0000250 202.6721 157.4269 15.30222599 25646
STARLINK-34455          
1 65497U 25198F   26049.43716961  .00013099  00000+0  45366-3 0  9992
2 65497  53.1605   0.3406 0001365  87.8449 272.2708 15.30195024 25679
STARLINK-35203          
1 65498U 25198G   26049.27710010  .00025499  00000+0  87003-3 0  9995
2 65498  53.1606   1.4748 0001141  78.6234 281.4895 15.30202434 25644
STARLINK-35166          
1 65499U 25198H   26049.27815449  .00033087  00000+0  11242-2 0  9991
2 65499  53.1605   1.4780 0001262  94.6425 265.4720 15.30202454 25645
STARLINK-35207          
1 65500U 25198J   26049.26127439  .00029461  00000+0  10028-2 0  9990
2 65500  53.1619   1.3811 0002075  54.4912 305.6282 15.30203559 25642
STARLINK-35140          
1 65501U 25198K   26049.10109135  .00032092  00000+0  10901-2 0  9991
2 65501  53.1606   1.7929 0001559 126.9173 233.1971 15.30224291 25627
STARLINK-35114          
1 65502U 25198L   26049.91671296  .00004900  00000+0  17748-3 0  9997
2 65502  53.1604 358.0559 0001023 103.2143  49.1217 15.30194452  5906
STARLINK-35126          
1 65503U 25198M   26049.25810639  .00023628  00000+0  80737-3 0  9997
2 65503  53.1626   1.3505 0001287  95.0258 265.0890 15.30199651 25642
STARLINK-35182          
1 65504U 25198N   26049.27183252  .00032282  00000+0  10957-2 0  9996
2 65504  53.1607   1.4381 0001606  87.9601 272.1583 15.30247333 25641
STARLINK-35072          
1 65505U 25198P   26049.23910803  .00018448  00000+0  63374-3 0  9993
2 65505  53.1615   1.2292 0001076  99.3744 260.7379 15.30184203 25648
STARLINK-35184          
1 65506U 25198Q   26049.91671296  .00009425  00000+0  33005-3 0  9992
2 65506  53.1596 357.8801 0001313  92.4456 147.1444 15.30190017  5909
STARLINK-35163          
1 65507U 25198R   26049.27076293  .00066959  00000+0  22470-2 0  9996
2 65507  53.1610   1.4353 0001462 101.7406 258.3759 15.30281180 25644
STARLINK-35119          
1 65508U 25198S   26049.28026551  .00030743  00000+0  10457-2 0  9994
2 65508  53.1608   1.4925 0001179  75.4458 284.6673 15.30205162 25649
STARLINK-35168          
1 65509U 25198T   26049.25177529  .00024751  00000+0  84491-3 0  9996
2 65509  53.1621   1.3149 0001380  61.6846 298.4294 15.30203841 25648
STARLINK-35122          
1 65510U 25198U   26049.23807699  .00019697  00000+0  67577-3 0  9993
2 65510  53.1607   1.2277 0001276 114.3195 245.7939 15.30181714 25647
