[{"OBJECT_NAME":"STARLINK-35223","OBJECT_ID":"2025-198C","EPOCH":"2026-02-18T06:04:04.389312","MEAN_MOTION":15.30211399,"ECCENTRICITY":9.44e-5,"INCLINATION":53.1618,"RA_OF_ASC_NODE":1.3224,"ARG_OF_PERICENTER":102.3885,"MEAN_ANOMALY":257.7221,"EPHEMERIS_TYPE":0,"CLASSIFICATION_TYPE":"U","NORAD_CAT_ID":65494,"ELEMENT_SET_NO":999,"REV_AT_EPOCH":2564,"BSTAR":0.0010187,"MEAN_MOTION_DOT":0.00029944,"MEAN_MOTION_DDOT":0},{"OBJECT_NAME":"STARLINK-34446","OBJECT_ID":"2025-198D","EPOCH":"2026-02-18T20:27:14.441472","MEAN_MOTION":15.30252456,"ECCENTRICITY":9.45e-5,"INCLINATION":53.1614,"RA_OF_ASC_NODE":358.6658,"ARG_OF_PERICENTER":85.5356,"MEAN_ANOMALY":274.5753,"EPHEMERIS_TYPE":0,"CLASSIFICATION_TYPE":"U","NORAD_CAT_ID":65495,"ELEMENT_SET_NO":999,"REV_AT_EPOCH":2573,"BSTAR":0.00089844,"MEAN_MOTION_DOT":0.00026388,"MEAN_MOTION_DDOT":0},{"OBJECT_NAME":"STARLINK-35212","OBJECT_ID":"2025-198E","EPOCH":"2026-02-18T06:13:10.979040","MEAN_MOTION":15.30222599,"ECCENTRICITY":2.5e-5,"INCLINATION":53.1628,"RA_OF_ASC_NODE":1.3603,"ARG_OF_PERICENTER":202.6721,"MEAN_ANOMALY":157.4269,"EPHEMERIS_TYPE":0,"CLASSIFICATION_TYPE":"U","NORAD_CAT_ID":65496,"ELEMENT_SET_NO":999,"REV_AT_EPOCH":2564,"BSTAR":0.0008913,"MEAN_MOTION_DOT":0.0002615,"MEAN_MOTION_DDOT":0},{"OBJECT_NAME":"STARLINK-34455","OBJECT_ID":"2025-198F","EPOCH":"2026-02-18T10:29:31.454304","MEAN_MOTION":15.30195024,"ECCENTRICITY":0.0001365,"INCLINATION":53.1605,"RA_OF_ASC_NODE":0.3406,"ARG_OF_PERICENTER":87.8449,"MEAN_ANOMALY":272.2708,"EPHEMERIS_TYPE":0,"CLASSIFICATION_TYPE":"U","NORAD_CAT_ID":65497,"ELEMENT_SET_NO":999,"REV_AT_EPOCH":2567,"BSTAR":0.00045366386,"MEAN_MOTION_DOT":0.00013099,"MEAN_MOTION_DDOT":0},{"OBJECT_NAME":"STARLINK-35203","OBJECT_ID":"2025-198G","EPOCH":"2026-02-18T06:39:01.448640","MEAN_MOTION":15.30202434,"ECCENTRICITY":0.0001141,"INCLINATION":53.1606,"RA_OF_ASC_NODE":1.4748,"ARG_OF_PERICENTER":78.6234,"MEAN_ANOMALY":281.4895,"EPHEMERIS_TYPE":0,"CLASSIFICATION_TYPE":"U","NORAD_CAT_ID":65498,"ELEMENT_SET_NO":999,"REV_AT_EPOCH":2564,"BSTAR":0.00087003,"MEAN_MOTION_DOT":0.00025499,"MEAN_MOTION_DDOT":0},{"OBJECT_NAME":"STARLINK-35166","OBJECT_ID":"2025-198H","EPOCH":"2026-02-18T06:40:32.547936","MEAN_MOTION":15.30202454,"ECCENTRICITY":0.0001262,"INCLINATION":53.1605,"RA_OF_ASC_NODE":1.478,"ARG_OF_PERICENTER":94.6425,"MEAN_ANOMALY":265.472,"EPHEMERIS_TYPE":0,"CLASSIFICATION_TYPE":"U","NORAD_CAT_ID":65499,"ELEMENT_SET_NO":999,"REV_AT_EPOCH":2564,"BSTAR":0.0011242,"MEAN_MOTION_DOT":0.00033087,"MEAN_MOTION_DDOT":0},{"OBJECT_NAME":"STARLINK-35207","OBJECT_ID":"2025-198J","EPOCH":"2026-02-18T06:16:14.107296","MEAN_MOTION":15.30203559,"ECCENTRICITY":0.0002075,"INCLINATION":53.1619,"RA_OF_ASC_NODE":1.3811,"ARG_OF_PERICENTER":54.4912,"MEAN_ANOMALY":305.6282,"EPHEMERIS_TYPE":0,"CLASSIFICATION_TYPE":"U","NORAD_CAT_ID":65500,"ELEMENT_SET_NO":999,"REV_AT_EPOCH":2564,"BSTAR":0.0010028,"MEAN_MOTION_DOT":0.00029461,"MEAN_MOTION_DDOT":0},{"OBJECT_NAME":"STARLINK-35140","OBJECT_ID":"2025-198K","EPOCH":"2026-02-18T02:25:34.292640","MEAN_MOTION":15.30224291,"ECCENTRICITY":0.0001559,"INCLINATION":53.1606,"RA_OF_ASC_NODE":1.7929,"ARG_OF_PERICENTER":126.9173,"MEAN_ANOMALY":233.1971,"EPHEMERIS_TYPE":0,"CLASSIFICATION_TYPE":"U","NORAD_CAT_ID":65501,"ELEMENT_SET_NO":999,"REV_AT_EPOCH":2562,"BSTAR":0.0010901385,"MEAN_MOTION_DOT":0.00032092,"MEAN_MOTION_DDOT":0},{"OBJECT_NAME":"STARLINK-35114","OBJECT_ID":"2025-198L","EPOCH":"2026-02-18T22:00:03.999744","MEAN_MOTION":15.30194452,"ECCENTRICITY":0.0001023,"INCLINATION":53.1604,"RA_OF_ASC_NODE":358.0559,"ARG_OF_PERICENTER":103.2143,"MEAN_ANOMALY":49.1217,"EPHEMERIS_TYPE":0,"CLASSIFICATION_TYPE":"U","NORAD_CAT_ID":65502,"ELEMENT_SET_NO":999,"REV_AT_EPOCH":590,"BSTAR":0.00017748,"MEAN_MOTION_DOT":4.9e-5,"MEAN_MOTION_DDOT":0},{"OBJECT_NAME":"STARLINK-35126","OBJECT_ID":"2025-198M","EPOCH":"2026-02-18T06:11:40.392096","MEAN_MOTION":15.30199651,"ECCENTRICITY":0.0001287,"INCLINATION":53.1626,"RA_OF_ASC_NODE":1.3505,"ARG_OF_PERICENTER":95.0258,"MEAN_ANOMALY":265.089,"EPHEMERIS_TYPE":0,"CLASSIFICATION_TYPE":"U","NORAD_CAT_ID":65503,"ELEMENT_SET_NO":999,"REV_AT_EPOCH":2564,"BSTAR":0.00080737,"MEAN_MOTION_DOT":0.00023628,"MEAN_MOTION_DDOT":0},{"OBJECT_NAME":"STARLINK-35182","OBJECT_ID":"2025-198N","EPOCH":"2026-02-18T06:31:26.329728","MEAN_MOTION":15.30247333,"ECCENTRICITY":0.0001606,"INCLINATION":53.1607,"RA_OF_ASC_NODE":1.4381,"ARG_OF_PERICENTER":87.9601,"MEAN_ANOMALY":272.1583,"EPHEMERIS_TYPE":0,"CLASSIFICATION_TYPE":"U","NORAD_CAT_ID":65504,"ELEMENT_SET_NO":999,"REV_AT_EPOCH":2564,"BSTAR":0.0010957,"MEAN_MOTION_DOT":0.00032282,"MEAN_MOTION_DDOT":0},{"OBJECT_NAME":"STARLINK-35072","OBJECT_ID":"2025-198P","EPOCH":"2026-02-18T05:44:18.933792","MEAN_MOTION":15.30184203,"ECCENTRICITY":0.0001076,"INCLINATION":53.1615,"RA_OF_ASC_NODE":1.2292,"ARG_OF_PERICENTER":99.3744,"MEAN_ANOMALY":260.7379,"EPHEMERIS_TYPE":0,"CLASSIFICATION_TYPE":"U","NORAD_CAT_ID":65505,"ELEMENT_SET_NO":999,"REV_AT_EPOCH":2564,"BSTAR":0.00063374,"MEAN_MOTION_DOT":0.00018448,"MEAN_MOTION_DDOT":0},{"OBJECT_NAME":"STARLINK-35184","OBJECT_ID":"2025-198Q","EPOCH":"2026-02-18T22:00:03.999744","MEAN_MOTION":15.30190017,"ECCENTRICITY":0.0001313,"INCLINATION":53.1596,"RA_OF_ASC_NODE":357.8801,"ARG_OF_PERICENTER":92.4456,"MEAN_ANOMALY":147.1444,"EPHEMERIS_TYPE":0,"CLASSIFICATION_TYPE":"U","NORAD_CAT_ID":65506,"ELEMENT_SET_NO":999,"REV_AT_EPOCH":590,"BSTAR":0.00033005,"MEAN_MOTION_DOT":9.425e-5,"MEAN_MOTION_DDOT":0},{"OBJECT_NAME":"STARLINK-35163","OBJECT_ID":"2025-198R","EPOCH":"2026-02-18T06:29:53.917152","MEAN_MOTION":15.3028118,"ECCENTRICITY":0.0001462,"INCLINATION":53.161,"RA_OF_ASC_NODE":1.4353,"ARG_OF_PERICENTER":101.7406,"MEAN_ANOMALY":258.3759,"EPHEMERIS_TYPE":0,"CLASSIFICATION_TYPE":"U","NORAD_CAT_ID":65507,"ELEMENT_SET_NO":999,"REV_AT_EPOCH":2564,"BSTAR":0.002247,"MEAN_MOTION_DOT":0.00066959,"MEAN_MOTION_DDOT":0},{"OBJECT_NAME":"STARLINK-35119","OBJECT_ID":"2025-198S","EPOCH":"2026-02-18T06:43:34.940064","MEAN_MOTION":15.30205162,"ECCENTRICITY":0.0001179,"INCLINATION":53.1608,"RA_OF_ASC_NODE":1.4925,"ARG_OF_PERICENTER":75.4458,"MEAN_ANOMALY":284.6673,"EPHEMERIS_TYPE":0,"CLASSIFICATION_TYPE":"U","NORAD_CAT_ID":65508,"ELEMENT_SET_NO":999,"REV_AT_EPOCH":2564,"BSTAR":0.0010457,"MEAN_MOTION_DOT":0.00030743,"MEAN_MOTION_DDOT":0},{"OBJECT_NAME":"STARLINK-35168","OBJECT_ID":"2025-198T","EPOCH":"2026-02-18T06:02:33.385056","MEAN_MOTION":15.30203841,"ECCENTRICITY":0.000138,"INCLINATION":53.1621,"RA_OF_ASC_NODE":1.3149,"ARG_OF_PERICENTER":61.6846,"MEAN_ANOMALY":298.4294,"EPHEMERIS_TYPE":0,"CLASSIFICATION_TYPE":"U","NORAD_CAT_ID":65509,"ELEMENT_SET_NO":999,"REV_AT_EPOCH":2564,"BSTAR":0.00084491,"MEAN_MOTION_DOT":0.00024751,"MEAN_MOTION_DDOT":0},{"OBJECT_NAME":"STARLINK-35122","OBJECT_ID":"2025-198U","EPOCH":"2026-02-18T05:42:49.851936","MEAN_MOTION":15.30181714,"ECCENTRICITY":0.0001276,"INCLINATION":53.1607,"RA_OF_ASC_NODE":1.2277,"ARG_OF_PERICENTER":114.3195,"MEAN_ANOMALY":245.7939,"EPHEMERIS_TYPE":0,"CLASSIFICATION_TYPE":"U","NORAD_CAT_ID":65510,"ELEMENT_SET_NO":999,"REV_AT_EPOCH":2564,"BSTAR":0.00067577,"MEAN_MOTION_DOT":0.00019697,"MEAN_MOTION_DDOT":0}]
